OBJECT_NAME,OBJECT_ID,EPOCH,MEAN_MOTION,ECCENTRICITY,INCLINATION,RA_OF_ASC_NODE,ARG_OF_PERICENTER,MEAN_ANOMALY,EPHEMERIS_TYPE,CLASSIFICATION_TYPE,NORAD_CAT_ID,ELEMENT_SET_NO,REV_AT_EPOCH,BSTAR,MEAN_MOTION_DOT,MEAN_MOTION_DDOT
GONETS-M 19,2020-068C,2026-06-12T05:43:00.568992,12.42891954,.00144003,82.4972,350.1519,59.5622,300.6879,0,U,46488,999,25863,.16730357E-3,.33E-6,0
DEKART,2020-068H,2026-06-12T06:14:14.870112,15.37240476,.00072014,97.8739,172.1771,308.5467,51.5131,0,U,46493,999,31501,.34035046E-3,.12339E-3,0
NORBI,2020-068J,2026-06-12T07:26:29.544288,15.48252274,.00045177,97.8624,178.8454,269.3540,90.7192,0,U,46494,999,31545,.4613E-3,.24268E-3,0
SALSAT,2020-068K,2026-06-12T05:45:09.268704,15.29730151,.0008469,97.8848,166.0033,328.8216,31.2520,0,U,46495,999,31460,.28201772E-3,.8047E-4,0
ICEYE-X6,2020-068M,2026-06-12T06:28:26.826816,15.04493338,.00084821,98.0961,156.7058,104.4338,255.7829,0,U,46497,999,31249,.26447072E-3,.3637E-4,0
NETSAT-4,2020-068U,2026-06-12T00:06:03.672288,15.43693540,.00044978,97.8603,170.8288,1.0103,359.1152,0,U,46504,999,31497,.36610083E-3,.16437E-3,0
NETSAT-3,2020-068V,2026-06-12T06:23:00.305664,15.42511716,.00049268,97.8651,169.3342,19.4008,340.7424,0,U,46505,999,31492,.45347216E-3,.19599E-3,0
NETSAT-1,2020-068W,2026-06-12T05:52:48.035424,15.34529137,.00056209,97.8742,163.7008,46.6964,313.4746,0,U,46506,999,31454,.39944755E-3,.13288E-3,0
NETSAT-2,2020-068X,2026-06-11T23:40:42.777408,15.45775798,.00041414,97.8617,170.6854,41.3390,318.8171,0,U,46507,999,31493,.45561608E-3,.21996E-3,0
TIANQI-6,2020-076D,2026-06-12T04:04:44.417856,15.07150656,.00093724,34.9990,79.2547,128.8326,231.3221,0,U,46810,999,30782,.24434355E-3,.3725E-4,0
KSM1-C,2020-081B,2026-06-12T06:06:58.269312,15.26656817,.0002373,36.8945,89.3895,221.6624,138.3945,0,U,46906,999,30841,.32558181E-3,.8653E-4,0
KSM1-D,2020-081C,2026-06-12T06:00:00.570240,15.24650416,.00047627,36.8947,98.3341,234.2866,125.7439,0,U,46907,999,30834,.29319547E-3,.7321E-4,0
KSM1-A,2020-081H,2026-06-12T06:07:57.893088,15.25882369,.00047349,36.8955,91.7432,275.5637,84.4572,0,U,46912,999,30842,.34130875E-3,.8866E-4,0
R2,2020-081J,2026-06-12T01:53:27.472416,15.25361113,.00089615,36.8976,92.7830,246.2489,113.7320,0,U,46913,999,31120,.28707405E-3,.7328E-4,0
KSM1-B,2020-081K,2026-06-12T06:03:59.848128,15.24440557,.00068021,36.9006,98.9100,246.6185,113.3848,0,U,46914,999,31143,.28383701E-3,.7041E-4,0
GONETS-M 20,2020-091A,2026-06-12T06:09:41.358816,12.42893650,.00209801,82.5039,305.5015,188.5976,171.4747,0,U,47227,999,25046,.28926585E-4,.14E-6,0
GONETS-M 21,2020-091B,2026-06-12T05:32:00.982752,12.42886788,.00145352,82.4963,304.2278,201.8019,158.2444,0,U,47228,999,25045,.66255685E-4,.19E-6,0
GONETS-M 22,2020-091C,2026-06-12T06:49:13.420704,12.42893122,.00219158,82.5020,305.0907,183.9328,176.1583,0,U,47229,999,25041,.59786458E-3,.93E-6,0
CUBEL,2021-006AM,2026-06-12T02:20:15.119808,15.41038149,.0005823,97.2338,213.7327,181.7535,178.3692,0,U,47448,999,29897,.2249757E-3,.921E-4,0
ARKTIKA-M 1,2021-016A,2026-06-09T12:22:37.726752,2.00625436,.7285674,63.2417,58.7595,269.8905,14.6803,0,U,47719,999,3863,0,-.149E-5,0
STARLINK-2342,2021-021Z,2026-06-12T08:00:01.999872,15.79667362,.00016923,53.1542,172.3886,76.1493,77.1038,0,U,47883,999,605,.59238826E-3,.111393E-2,0
GRUS-1B,2021-022C,2026-06-12T07:17:21.357888,14.98989142,.00161085,97.5418,46.6631,346.5163,13.5628,0,U,47934,999,28516,.12204551E-3,.1424E-4,0
2021-022F,2021-022F,2026-06-12T06:56:44.738880,15.32971927,.00116757,97.3906,63.9909,107.0694,253.1829,0,U,47937,999,28896,.26910084E-3,.851E-4,0
UNISAT-7,2021-022P,2026-06-12T06:53:54.446208,15.40338786,.00112261,97.3901,68.1614,92.8770,267.3762,0,U,47945,999,28910,.38268129E-3,.15399E-3,0
2021-022X,2021-022X,2026-06-12T04:04:16.402656,15.73569238,.00075159,97.3914,79.8816,89.1239,271.0886,0,U,47953,999,28971,.74789426E-3,.105381E-2,0
GLOBAL-9,2021-023G,2026-06-12T00:30:51.906240,15.46411215,.00050534,44.9818,279.5578,292.0115,68.0237,0,U,47971,999,29414,.42797712E-3,.21358E-3,0
AII-BRAVO,2021-034C,2026-06-12T02:18:37.035936,15.03441317,.00045712,97.5630,218.1215,282.8412,77.2302,0,U,48270,999,27885,.307334E-3,.4125E-4,0
TYVAK-182A,2021-034D,2026-06-12T03:33:26.021376,15.06123800,.00055301,97.5733,222.1531,6.6631,353.4669,0,U,48271,999,27907,.27813439E-3,.4007E-4,0
CSS (TIANHE),2021-035A,2026-06-11T23:39:31.552704,15.60574522,.00081426,41.4694,353.6513,34.9117,325.2255,0,U,48274,999,29235,.16312716E-3,.13571E-3,0
TYVAK-0130,2021-041BF,2026-06-12T00:10:34.875840,15.27500627,.00106422,52.9974,50.1403,146.3438,213.8238,0,U,48606,999,27959,.2378646E-3,.6146E-4,0
