{"_default": { "161": {"norad_id": "46495", "name": "SALSAT", "tle1": "1 46495U 20068K   26163.23969061  .00008047  00000-0  28202-3 0  9994", "tle2": "2 46495  97.8848 166.0033 0008469 328.8216  31.2520 15.29730151314601", "object_type": "PAYLOAD", "criticality_score": 9.0, "last_updated": "2026-06-12T14:14:32.686762+00:00", "maneuver_count": 0, "owner": "N/A"}, "162": {"norad_id": "46506", "name": "NETSAT-1", "tle1": "1 46506U 20068W   26163.24500041  .00013288  00000-0  39945-3 0  9996", "tle2": "2 46506  97.8742 163.7008 0005621  46.6964 313.4746 15.34529137314549", "object_type": "PAYLOAD", "criticality_score": 9.0, "last_updated": "2026-06-12T14:14:32.686762+00:00", "maneuver_count": 0, "owner": "N/A"}, "163": {"norad_id": "46507", "name": "NETSAT-2", "tle1": "1 46507U 20068X   26162.98660622  .00021996  00000-0  45562-3 0  9996", "tle2": "2 46507  97.8617 170.6854 0004141  41.3390 318.8171 15.45775798314930", "object_type": "PAYLOAD", "criticality_score": 9.0, "last_updated": "2026-06-12T14:14:32.686762+00:00", "maneuver_count": 0, "owner": "N/A"}, "164": {"norad_id": "46505", "name": "NETSAT-3", "tle1": "1 46505U 20068V   26163.26597576  .00019599  00000-0  45347-3 0  9990", "tle2": "2 46505  97.8651 169.3342 0004927  19.4008 340.7424 15.42511716314926", "object_type": "PAYLOAD", "criticality_score": 9.0, "last_updated": "2026-06-12T14:14:32.686762+00:00", "maneuver_count": 0, "owner": "N/A"}, "165": {"norad_id": "46504", "name": "NETSAT-4", "tle1": "1 46504U 20068U   26163.00420917  .00016437  00000-0  36610-3 0  9996", "tle2": "2 46504  97.8603 170.8288 0004498   1.0103 359.1152 15.43693540314978", "object_type": "PAYLOAD", "criticality_score": 9.0, "last_updated": "2026-06-12T14:14:32.686762+00:00", "maneuver_count": 0, "owner": "N/A"}, "166": {"norad_id": "46493", "name": "DEKART", "tle1": "1 46493U 20068H   26163.25989433  .00012339  00000-0  34035-3 0  9999", "tle2": "2 46493  97.8739 172.1771 0007201 308.5467  51.5131 15.37240476315015", "object_type": "PAYLOAD", "criticality_score": 9.0, "last_updated": "2026-06-12T14:14:32.686762+00:00", "maneuver_count": 0, "owner": "N/A"}, "167": {"norad_id": "46494", "name": "NORBI", "tle1": "1 46494U 20068J   26163.31006417  .00024268  00000-0  46130-3 0  9992", "tle2": "2 46494  97.8624 178.8454 0004518 269.3540  90.7192 15.48252274315455", "object_type": "PAYLOAD", "criticality_score": 9.0, "last_updated": "2026-06-12T14:14:32.686762+00:00", "maneuver_count": 0, "owner": "N/A"}, "203": {"norad_id": "47448", "name": "CUBEL", "tle1": "1 47448U 21006AM  26163.09739722  .00009210  00000-0  22498-3 0  9993", "tle2": "2 47448  97.2338 213.7327 0005823 181.7535 178.3692 15.41038149298971", "object_type": "PAYLOAD", "criticality_score": 9.0, "last_updated": "2026-06-12T14:14:32.686762+00:00", "maneuver_count": 0, "owner": "N/A"}, "205": {"norad_id": "47945", "name": "UNISAT 7", "tle1": "1 47945U 21022P   26163.28743572  .00015399  00000-0  38268-3 0  9999", "tle2": "2 47945  97.3901  68.1614 0011226  92.8770 267.3762 15.40338786289109", "object_type": "PAYLOAD", "criticality_score": 9.0, "last_updated": "2026-06-12T14:14:32.686762+00:00", "maneuver_count": 0, "owner": "N/A"}, "206": {"norad_id": "47937", "name": "OBJECT F", "tle1": "1 47937U 21022F   26163.28940670  .00008510  00000-0  26910-3 0  9996", "tle2": "2 47937  97.3906  63.9909 0011676 107.0694 253.1829 15.32971927288969", "object_type": "PAYLOAD", "criticality_score": 9.0, "last_updated": "2026-06-12T14:14:32.686762+00:00", "maneuver_count": 0, "owner": "N/A"}, "207": {"norad_id": "47953", "name": "OBJECT X", "tle1": "1 47953U 21022X   26163.16963429  .00105381  00000-0  74789-3 0  9999", "tle2": "2 47953  97.3914  79.8816 0007516  89.1239 271.0886 15.73569238289711", "object_type": "PAYLOAD", "criticality_score": 9.0, "last_updated": "2026-06-12T14:14:32.686762+00:00", "maneuver_count": 0, "owner": "N/A"}, "211": {"norad_id": "48274", "name": "CSS (TIANHE-1)", "tle1": "1 48274U 21035A   26162.98578186  .00013571  00000-0  16313-3 0  9999", "tle2": "2 48274  41.4694 353.6513 0008143  34.9117 325.2255 15.60574522292354", "object_type": "PAYLOAD", "criticality_score": 9.0, "last_updated": "2026-06-12T14:14:32.686762+00:00", "maneuver_count": 0, "owner": "N/A"}, "238": {"norad_id": "46810", "name": "TIANQI-6", "tle1": "1 46810U 20076D   26163.16995854  .00003725  00000-0  24434-3 0  9996", "tle2": "2 46810  34.9990  79.2547 0009372 128.8326 231.3221 15.07150656307820", "object_type": "PAYLOAD", "criticality_score": 9.0, "last_updated": "2026-06-12T14:14:32.686762+00:00", "maneuver_count": 0, "owner": "N/A"}, "250": {"norad_id": "48606", "name": "TYVAK-0130", "tle1": "1 48606U 21041BF  26163.00734810  .00006146  00000-0  23786-3 0  9999", "tle2": "2 48606  52.9974  50.1403 0010642 146.3438 213.8238 15.27500627279591", "object_type": "PAYLOAD", "criticality_score": 9.0, "last_updated": "2026-06-12T14:14:32.686762+00:00", "maneuver_count": 0, "owner": "N/A"}, "251": {"norad_id": "48271", "name": "TYVAK-182A", "tle1": "1 48271U 21034D   26163.14821784  .00004007  00000-0  27813-3 0  9990", "tle2": "2 48271  97.5733 222.1531 0005530   6.6631 353.4669 15.06123800279076", "object_type": "PAYLOAD", "criticality_score": 9.0, "last_updated": "2026-06-12T14:14:32.686762+00:00", "maneuver_count": 0, "owner": "N/A"}, "277": {"norad_id": "48270", "name": "AII-BRAVO", "tle1": "1 48270U 21034C   26163.09626199  .00004125  00000-0  30733-3 0  9992", "tle2": "2 48270  97.5630 218.1215 0004571 282.8412  77.2302 15.03441317278857", "object_type": "PAYLOAD", "criticality_score": 9.0, "last_updated": "2026-06-12T14:14:32.686762+00:00", "maneuver_count": 0, "owner": "N/A"}, "300": {"norad_id": "47883", "name": "STARLINK-2342", "tle1": "1 47883U 21021Z   26163.33335648  .00111393  00000-0  59239-3 0  9998", "tle2": "2 47883  53.1542 172.3886 0001692  76.1493  77.1038 15.79667362  6054", "object_type": "PAYLOAD", "criticality_score": 9.0, "last_updated": "2026-06-12T14:14:32.686762+00:00", "maneuver_count": 0, "owner": "N/A"}, "335": {"norad_id": "46912", "name": "KSM1-A", "tle1": "1 46912U 20081H   26163.25553117  .00008866  00000-0  34131-3 0  9993", "tle2": "2 46912  36.8955  91.7432 0004735 275.5637  84.4572 15.25882369308426", "object_type": "PAYLOAD", "criticality_score": 9.0, "last_updated": "2026-06-12T14:14:32.686762+00:00", "maneuver_count": 0, "owner": "N/A"}, "336": {"norad_id": "46914", "name": "KSM1-B", "tle1": "1 46914U 20081K   26163.25277602  .00007041  00000-0  28384-3 0  9994", "tle2": "2 46914  36.9006  98.9100 0006802 246.6185 113.3848 15.24440557311432", "object_type": "PAYLOAD", "criticality_score": 9.0, "last_updated": "2026-06-12T14:14:32.686762+00:00", "maneuver_count": 0, "owner": "N/A"}, "337": {"norad_id": "46906", "name": "KSM1-C", "tle1": "1 46906U 20081B   26163.25484108  .00008653  00000-0  32558-3 0  9994", "tle2": "2 46906  36.8945  89.3895 0002373 221.6624 138.3945 15.26656817308418", "object_type": "PAYLOAD", "criticality_score": 9.0, "last_updated": "2026-06-12T14:14:32.686762+00:00", "maneuver_count": 0, "owner": "N/A"}, "346": {"norad_id": "46907", "name": "KSM1-D", "tle1": "1 46907U 20081C   26163.25000660  .00007321  00000-0  29320-3 0  9996", "tle2": "2 46907  36.8947  98.3341 0004763 234.2866 125.7439 15.24650416308347", "object_type": "PAYLOAD", "criticality_score": 9.0, "last_updated": "2026-06-12T14:14:32.686762+00:00", "maneuver_count": 0, "owner": "N/A"}, "364": {"norad_id": "47719", "name": "ARKTIKA-M 1", "tle1": "1 47719U 21016A   26160.51571443 -.00000149  00000-0  00000+0 0  9997", "tle2": "2 47719  63.2417  58.7595 7285674 269.8905  14.6803  2.00625436 38630", "object_type": "PAYLOAD", "criticality_score": 9.0, "last_updated": "2026-06-12T14:14:32.686762+00:00", "maneuver_count": 0, "owner": "N/A"}, "416": {"norad_id": "46497", "name": "ICEYE-X6", "tle1": "1 46497U 20068M   26163.26975494  .00003637  00000-0  26447-3 0  9995", "tle2": "2 46497  98.0961 156.7058 0008482 104.4338 255.7829 15.04493338312499", "object_type": "PAYLOAD", "criticality_score": 9.0, "last_updated": "2026-06-12T14:14:32.686762+00:00", "maneuver_count": 0, "owner": "N/A"}, "446": {"norad_id": "46913", "name": "R2", "tle1": "1 46913U 20081J   26163.07879019  .00007328  00000-0  28707-3 0  9990", "tle2": "2 46913  36.8976  92.7830 0008962 246.2489 113.7320 15.25361113311205", "object_type": "PAYLOAD", "criticality_score": 9.0, "last_updated": "2026-06-12T14:14:32.686762+00:00", "maneuver_count": 0, "owner": "N/A"}, "448": {"norad_id": "47971", "name": "GLOBAL-9", "tle1": "1 47971U 21023G   26163.02143410  .00021358  00000-0  42798-3 0  9991", "tle2": "2 47971  44.9818 279.5578 0005053 292.0115  68.0237 15.46411215294146", "object_type": "PAYLOAD", "criticality_score": 9.0, "last_updated": "2026-06-12T14:14:32.686762+00:00", "maneuver_count": 0, "owner": "N/A"}, "540": {"norad_id": "47934", "name": "GRUS-1B", "tle1": "1 47934U 21022C   26163.30371942  .00001424  00000-0  12205-3 0  9995", "tle2": "2 47934  97.5418  46.6631 0016109 346.5163  13.5628 14.98989142285166", "object_type": "PAYLOAD", "criticality_score": 9.0, "last_updated": "2026-06-12T14:14:32.686762+00:00", "maneuver_count": 0, "owner": "N/A"}, "616": {"norad_id": "46488", "name": "GONETS M 19", "tle1": "1 46488U 20068C   26163.23820103  .00000033  00000-0  16730-3 0  9999", "tle2": "2 46488  82.4972 350.1519 0014400  59.5622 300.6879 12.42891954258638", "object_type": "PAYLOAD", "criticality_score": 9.0, "last_updated": "2026-06-12T14:14:32.686762+00:00", "maneuver_count": 0, "owner": "N/A"}, "617": {"norad_id": "47227", "name": "GONETS M 20", "tle1": "1 47227U 20091A   26163.25672869  .00000014  00000-0  28927-4 0  9994", "tle2": "2 47227  82.5039 305.5015 0020980 188.5976 171.4747 12.42893650250461", "object_type": "PAYLOAD", "criticality_score": 9.0, "last_updated": "2026-06-12T14:14:32.686762+00:00", "maneuver_count": 0, "owner": "N/A"}, "618": {"norad_id": "47228", "name": "GONETS M 21", "tle1": "1 47228U 20091B   26163.23056693  .00000019  00000-0  66256-4 0  9996", "tle2": "2 47228  82.4963 304.2278 0014535 201.8019 158.2444 12.42886788250450", "object_type": "PAYLOAD", "criticality_score": 9.0, "last_updated": "2026-06-12T14:14:32.686762+00:00", "maneuver_count": 0, "owner": "N/A"}, "619": {"norad_id": "47229", "name": "GONETS M 22", "tle1": "1 47229U 20091C   26163.28418311  .00000093  00000-0  59786-3 0  9992", "tle2": "2 47229  82.5020 305.0907 0021916 183.9328 176.1583 12.42893122250417", "object_type": "PAYLOAD", "criticality_score": 9.0, "last_updated": "2026-06-12T14:14:32.686762+00:00", "maneuver_count": 0, "owner": "N/A"}}}